59324,STARLINK-31570,2024,94.27,-1.0,+,43.0,Active,0,LEO,USA,USA,Unknown,Unknown,Unknown,1 59324U 24057E   25284.79885120  .00001579  00000+0  66881-4 0  9996,2 59324  43.0028 308.3177 0000925 255.5342 104.5407 15.27581200 87066,15.275812,9.25e-05,LEO
59325,STARLINK-31611,2024,94.27,-1.0,+,43.0,Active,0,LEO,USA,USA,Unknown,Unknown,Unknown,1 59325U 24057F   25285.32322956  .00000390  00000+0  23685-4 0  9995,2 59325  43.0046 305.3769 0001738 261.2705  98.7950 15.27583999 87144,15.27583999,0.0001738,LEO
59326,STARLINK-31632,2024,94.27,-1.0,+,43.0,Active,0,LEO,USA,USA,Unknown,Unknown,Unknown,1 59326U 24057G   25284.37695555  .00004844  00000+0  18539-3 0  9997,2 59326  43.0024 321.5641 0001398 260.5448  99.5245 15.27587610 86877,15.2758761,0.0001398,LEO
59327,STARLINK-31599,2024,94.27,-1.0,+,43.0,Active,0,LEO,USA,USA,Unknown,Unknown,Unknown,1 59327U 24057H   25285.07952203 -.00000341  00000+0 -28571-5 0  9991,2 59327  43.0019 306.1257 0001273 256.3532 103.7178 15.27588599 87111,15.27588599,0.0001273,LEO
59328,STARLINK-31614,2024,94.27,-1.0,+,43.0,Active,0,LEO,USA,USA,Unknown,Unknown,Unknown,1 59328U 24057J   25285.10394539  .00000157  00000+0  15210-4 0  9996,2 59328  43.0017 306.3094 0000939 263.3376  96.7369 15.27573713 87118,15.27573713,9.39e-05,LEO
59329,STARLINK-31493,2024,94.27,-1.0,+,43.0,Active,0,LEO,USA,USA,Unknown,Unknown,Unknown,1 59329U 24057K   25285.08723615 -.00000907  00000+0 -23430-4 0  9993,2 59329  43.0005 306.1866 0001084 274.5706  85.5022 15.27590624 87116,15.27590624,0.0001084,LEO
59330,STARLINK-31634,2024,94.27,-1.0,+,43.0,Active,0,LEO,USA,USA,Unknown,Unknown,Unknown,1 59330U 24057L   25285.11293302  .00000277  00000+0  19572-4 0  9994,2 59330  42.9994 306.3725 0001007 251.3851 108.6891 15.27580363 87118,15.27580363,0.0001007,LEO
59331,STARLINK-31633,2024,94.27,-1.0,+,43.0,Active,0,LEO,USA,USA,Unknown,Unknown,Unknown,1 59331U 24057M   25285.11036059  .00004073  00000+0  15746-3 0  9995,2 59331  43.0007 306.3512 0000795 279.7019  80.3743 15.27576930 87110,15.2757693,7.95e-05,LEO
59332,STARLINK-31594,2024,94.27,-1.0,+,43.0,Active,0,LEO,USA,USA,Unknown,Unknown,Unknown,1 59332U 24057N   25285.10006396  .00000267  00000+0  19228-4 0  9997,2 59332  43.0031 317.5284 0001536 264.3100  95.7577 15.27585353 86981,15.27585353,0.0001536,LEO
59333,STARLINK-31572,2024,94.27,-1.0,+,43.0,Active,0,LEO,USA,USA,Unknown,Unknown,Unknown,1 59333U 24057P   25285.10263195  .00000927  00000+0  43183-4 0  9990,2 59333  43.0020 317.5457 0000752 244.1019 115.9756 15.27584198 86986,15.27584198,7.52e-05,LEO
59334,STARLINK-31573,2024,94.27,-1.0,+,43.0,Active,0,LEO,USA,USA,Unknown,Unknown,Unknown,1 59334U 24057Q   25285.32565011  .00000106  00000+0  13356-4 0  9995,2 59334  43.0041 304.5239 0001153 266.7205  93.3515 15.27586012 87156,15.27586012,0.0001153,LEO
59335,STARLINK-31588,2024,94.27,-1.0,+,43.0,Active,0,LEO,USA,USA,Unknown,Unknown,Unknown,1 59335U 24057R   25285.33207417 -.00000399  00000+0 -49906-5 0  9997,2 59335  43.0000 304.5774 0000891 282.5706  77.5046 15.27584865 87153,15.27584865,8.91e-05,LEO
59336,STARLINK-31596,2024,94.27,-1.0,+,43.0,Active,0,LEO,USA,USA,Unknown,Unknown,Unknown,1 59336U 24057S   25285.33592850 -.00001732  00000+0 -53425-4 0  9998,2 59336  42.9983 304.6056 0000438 230.7469 129.3344 15.27591249 87155,15.27591249,4.38e-05,LEO
59337,STARLINK-31612,2024,94.27,-1.0,+,43.0,Active,0,LEO,USA,USA,Unknown,Unknown,Unknown,1 59337U 24057T   25284.77058690  .00003198  00000+0  12564-3 0  9999,2 59337  43.0015 308.1032 0000419 261.9287  98.1517 15.27583649 87060,15.27583649,4.19e-05,LEO
59338,STARLINK-31550,2024,94.27,-1.0,+,43.01,Active,0,LEO,USA,USA,Unknown,Unknown,Unknown,1 59338U 24057U   25285.05782996 -.00000494  00000+0 -84288-5 0  9997,2 59338  43.0034 306.8222 0000618 299.6042  60.4748 15.27584898 87106,15.27584898,6.18e-05,LEO
59339,STARLINK-31473,2024,94.27,-1.0,+,43.0,Active,0,LEO,USA,USA,Unknown,Unknown,Unknown,1 59339U 24057V   25285.08593085  .00011984  00000+0  44395-3 0  9997,2 59339  42.9991 306.1725 0000512 128.3141 231.7756 15.27604373 87113,15.27604373,5.12e-05,LEO
