[{"OBJECT_NAME":"STARLINK-31570","OBJECT_ID":"2024-057E","EPOCH":"2025-10-11T19:10:20.743680","MEAN_MOTION":15.275812,"ECCENTRICITY":9.256e-5,"INCLINATION":43.0028,"RA_OF_ASC_NODE":308.3177,"ARG_OF_PERICENTER":255.5342,"MEAN_ANOMALY":104.5407,"EPHEMERIS_TYPE":0,"CLASSIFICATION_TYPE":"U","NORAD_CAT_ID":59324,"ELEMENT_SET_NO":999,"REV_AT_EPOCH":8706,"BSTAR":6.6880854e-5,"MEAN_MOTION_DOT":1.579e-5,"MEAN_MOTION_DDOT":0},{"OBJECT_NAME":"STARLINK-31611","OBJECT_ID":"2024-057F","EPOCH":"2025-10-12T07:45:27.033984","MEAN_MOTION":15.27583999,"ECCENTRICITY":0.00017384,"INCLINATION":43.0046,"RA_OF_ASC_NODE":305.3769,"ARG_OF_PERICENTER":261.2705,"MEAN_ANOMALY":98.795,"EPHEMERIS_TYPE":0,"CLASSIFICATION_TYPE":"U","NORAD_CAT_ID":59325,"ELEMENT_SET_NO":999,"REV_AT_EPOCH":8714,"BSTAR":2.3685202e-5,"MEAN_MOTION_DOT":3.9e-6,"MEAN_MOTION_DDOT":0},{"OBJECT_NAME":"STARLINK-31632","OBJECT_ID":"2024-057G","EPOCH":"2025-10-11T09:02:48.959520","MEAN_MOTION":15.2758761,"ECCENTRICITY":0.00013988,"INCLINATION":43.0024,"RA_OF_ASC_NODE":321.5641,"ARG_OF_PERICENTER":260.5448,"MEAN_ANOMALY":99.5245,"EPHEMERIS_TYPE":0,"CLASSIFICATION_TYPE":"U","NORAD_CAT_ID":59326,"ELEMENT_SET_NO":999,"REV_AT_EPOCH":8687,"BSTAR":0.00018539006,"MEAN_MOTION_DOT":4.844e-5,"MEAN_MOTION_DDOT":0},{"OBJECT_NAME":"STARLINK-31599","OBJECT_ID":"2024-057H","EPOCH":"2025-10-12T01:54:30.703392","MEAN_MOTION":15.27588599,"ECCENTRICITY":0.00012736,"INCLINATION":43.0019,"RA_OF_ASC_NODE":306.1257,"ARG_OF_PERICENTER":256.3532,"MEAN_ANOMALY":103.7178,"EPHEMERIS_TYPE":0,"CLASSIFICATION_TYPE":"U","NORAD_CAT_ID":59327,"ELEMENT_SET_NO":999,"REV_AT_EPOCH":8711,"BSTAR":-2.857117e-6,"MEAN_MOTION_DOT":-3.41e-6,"MEAN_MOTION_DDOT":0},{"OBJECT_NAME":"STARLINK-31614","OBJECT_ID":"2024-057J","EPOCH":"2025-10-12T02:29:40.881696","MEAN_MOTION":15.27573713,"ECCENTRICITY":9.391e-5,"INCLINATION":43.0017,"RA_OF_ASC_NODE":306.3094,"ARG_OF_PERICENTER":263.3376,"MEAN_ANOMALY":96.7369,"EPHEMERIS_TYPE":0,"CLASSIFICATION_TYPE":"U","NORAD_CAT_ID":59328,"ELEMENT_SET_NO":999,"REV_AT_EPOCH":8711,"BSTAR":1.5210081e-5,"MEAN_MOTION_DOT":1.57e-6,"MEAN_MOTION_DDOT":0},{"OBJECT_NAME":"STARLINK-31493","OBJECT_ID":"2024-057K","EPOCH":"2025-10-12T02:05:37.203360","MEAN_MOTION":15.27590624,"ECCENTRICITY":0.00010842,"INCLINATION":43.0005,"RA_OF_ASC_NODE":306.1866,"ARG_OF_PERICENTER":274.5706,"MEAN_ANOMALY":85.5022,"EPHEMERIS_TYPE":0,"CLASSIFICATION_TYPE":"U","NORAD_CAT_ID":59329,"ELEMENT_SET_NO":999,"REV_AT_EPOCH":8711,"BSTAR":-2.3429665e-5,"MEAN_MOTION_DOT":-9.07e-6,"MEAN_MOTION_DDOT":0},{"OBJECT_NAME":"STARLINK-31634","OBJECT_ID":"2024-057L","EPOCH":"2025-10-12T02:42:37.412928","MEAN_MOTION":15.27580363,"ECCENTRICITY":0.00010073,"INCLINATION":42.9994,"RA_OF_ASC_NODE":306.3725,"ARG_OF_PERICENTER":251.3851,"MEAN_ANOMALY":108.6891,"EPHEMERIS_TYPE":0,"CLASSIFICATION_TYPE":"U","NORAD_CAT_ID":59330,"ELEMENT_SET_NO":999,"REV_AT_EPOCH":8711,"BSTAR":1.9571652e-5,"MEAN_MOTION_DOT":2.77e-6,"MEAN_MOTION_DDOT":0},{"OBJECT_NAME":"STARLINK-31633","OBJECT_ID":"2024-057M","EPOCH":"2025-10-12T02:38:55.154976","MEAN_MOTION":15.2757693,"ECCENTRICITY":7.951e-5,"INCLINATION":43.0007,"RA_OF_ASC_NODE":306.3512,"ARG_OF_PERICENTER":279.7019,"MEAN_ANOMALY":80.3743,"EPHEMERIS_TYPE":0,"CLASSIFICATION_TYPE":"U","NORAD_CAT_ID":59331,"ELEMENT_SET_NO":999,"REV_AT_EPOCH":8711,"BSTAR":0.00015745571,"MEAN_MOTION_DOT":4.073e-5,"MEAN_MOTION_DDOT":0},{"OBJECT_NAME":"STARLINK-31594","OBJECT_ID":"2024-057N","EPOCH":"2025-10-12T02:24:05.526144","MEAN_MOTION":15.27585353,"ECCENTRICITY":0.00015367,"INCLINATION":43.0031,"RA_OF_ASC_NODE":317.5284,"ARG_OF_PERICENTER":264.31,"MEAN_ANOMALY":95.7577,"EPHEMERIS_TYPE":0,"CLASSIFICATION_TYPE":"U","NORAD_CAT_ID":59332,"ELEMENT_SET_NO":999,"REV_AT_EPOCH":8698,"BSTAR":1.9227959e-5,"MEAN_MOTION_DOT":2.67e-6,"MEAN_MOTION_DDOT":0},{"OBJECT_NAME":"STARLINK-31572","OBJECT_ID":"2024-057P","EPOCH":"2025-10-12T02:27:47.400480","MEAN_MOTION":15.27584198,"ECCENTRICITY":7.524e-5,"INCLINATION":43.002,"RA_OF_ASC_NODE":317.5457,"ARG_OF_PERICENTER":244.1019,"MEAN_ANOMALY":115.9756,"EPHEMERIS_TYPE":0,"CLASSIFICATION_TYPE":"U","NORAD_CAT_ID":59333,"ELEMENT_SET_NO":999,"REV_AT_EPOCH":8698,"BSTAR":4.3183371e-5,"MEAN_MOTION_DOT":9.27e-6,"MEAN_MOTION_DDOT":0},{"OBJECT_NAME":"STARLINK-31573","OBJECT_ID":"2024-057Q","EPOCH":"2025-10-12T07:48:56.169504","MEAN_MOTION":15.27586012,"ECCENTRICITY":0.00011539,"INCLINATION":43.0041,"RA_OF_ASC_NODE":304.5239,"ARG_OF_PERICENTER":266.7205,"MEAN_ANOMALY":93.3515,"EPHEMERIS_TYPE":0,"CLASSIFICATION_TYPE":"U","NORAD_CAT_ID":59334,"ELEMENT_SET_NO":999,"REV_AT_EPOCH":8715,"BSTAR":1.3356052e-5,"MEAN_MOTION_DOT":1.06e-6,"MEAN_MOTION_DDOT":0},{"OBJECT_NAME":"STARLINK-31588","OBJECT_ID":"2024-057R","EPOCH":"2025-10-12T07:58:11.208288","MEAN_MOTION":15.27584865,"ECCENTRICITY":8.912e-5,"INCLINATION":43,"RA_OF_ASC_NODE":304.5774,"ARG_OF_PERICENTER":282.5706,"MEAN_ANOMALY":77.5046,"EPHEMERIS_TYPE":0,"CLASSIFICATION_TYPE":"U","NORAD_CAT_ID":59335,"ELEMENT_SET_NO":999,"REV_AT_EPOCH":8715,"BSTAR":-4.990597e-6,"MEAN_MOTION_DOT":-3.99e-6,"MEAN_MOTION_DDOT":0},{"OBJECT_NAME":"STARLINK-31596","OBJECT_ID":"2024-057S","EPOCH":"2025-10-12T08:03:44.222400","MEAN_MOTION":15.27591249,"ECCENTRICITY":4.389e-5,"INCLINATION":42.9983,"RA_OF_ASC_NODE":304.6056,"ARG_OF_PERICENTER":230.7469,"MEAN_ANOMALY":129.3344,"EPHEMERIS_TYPE":0,"CLASSIFICATION_TYPE":"U","NORAD_CAT_ID":59336,"ELEMENT_SET_NO":999,"REV_AT_EPOCH":8715,"BSTAR":-5.3424766e-5,"MEAN_MOTION_DOT":-1.732e-5,"MEAN_MOTION_DDOT":0},{"OBJECT_NAME":"STARLINK-31612","OBJECT_ID":"2024-057T","EPOCH":"2025-10-11T18:29:38.708160","MEAN_MOTION":15.27583649,"ECCENTRICITY":4.193e-5,"INCLINATION":43.0015,"RA_OF_ASC_NODE":308.1032,"ARG_OF_PERICENTER":261.9287,"MEAN_ANOMALY":98.1517,"EPHEMERIS_TYPE":0,"CLASSIFICATION_TYPE":"U","NORAD_CAT_ID":59337,"ELEMENT_SET_NO":999,"REV_AT_EPOCH":8706,"BSTAR":0.00012564232,"MEAN_MOTION_DOT":3.198e-5,"MEAN_MOTION_DDOT":0},{"OBJECT_NAME":"STARLINK-31550","OBJECT_ID":"2024-057U","EPOCH":"2025-10-12T01:23:16.508544","MEAN_MOTION":15.27584898,"ECCENTRICITY":6.181e-5,"INCLINATION":43.0034,"RA_OF_ASC_NODE":306.8222,"ARG_OF_PERICENTER":299.6042,"MEAN_ANOMALY":60.4748,"EPHEMERIS_TYPE":0,"CLASSIFICATION_TYPE":"U","NORAD_CAT_ID":59338,"ELEMENT_SET_NO":999,"REV_AT_EPOCH":8710,"BSTAR":-8.428768e-6,"MEAN_MOTION_DOT":-4.94e-6,"MEAN_MOTION_DDOT":0},{"OBJECT_NAME":"STARLINK-31473","OBJECT_ID":"2024-057V","EPOCH":"2025-10-12T02:03:44.425440","MEAN_MOTION":15.27604373,"ECCENTRICITY":5.127e-5,"INCLINATION":42.9991,"RA_OF_ASC_NODE":306.1725,"ARG_OF_PERICENTER":128.3141,"MEAN_ANOMALY":231.7756,"EPHEMERIS_TYPE":0,"CLASSIFICATION_TYPE":"U","NORAD_CAT_ID":59339,"ELEMENT_SET_NO":999,"REV_AT_EPOCH":8711,"BSTAR":0.00044395271,"MEAN_MOTION_DOT":0.00011984,"MEAN_MOTION_DDOT":0}]
